start=new Date('2023-02-06T00:00:00.000Z').valueOf();
sats=[{"TLE_LINE2":"2 54074  53.2175   6.5069 0001268  98.1990 261.9146 15.08840124 16597","CENTER_NAME":"EARTH","FILE":"3774172","ARG_OF_PERICENTER":"98.1990","REF_FRAME":"TEME","RA_OF_ASC_NODE":"6.5069","SEMIMAJOR_AXIS":"6917.880","OBJECT_TYPE":"PAYLOAD","BSTAR":"0.00004912100000","MEAN_MOTION_DDOT":"0.0000000000000","MEAN_ANOMALY":"261.9146","REV_AT_EPOCH":"1659","EPHEMERIS_TYPE":"0","OBJECT_ID":"2022-136Z","DECAY_DATE":null,"TIME_SYSTEM":"UTC","ECCENTRICITY":"0.00012680","ELEMENT_SET_NO":"999","LAUNCH_DATE":"2022-10-20","SITE":"AFETR","TLE_LINE1":"1 54074U 22136Z   23036.91440264  .00000494  00000-0  49121-4 0  9996","MEAN_MOTION_DOT":"0.00000494","EPOCH":"2023-02-05T21:56:44.388096","APOAPSIS":"540.622","PERIAPSIS":"538.868","MEAN_MOTION":"15.08840124","INCLINATION":"53.2175","OBJECT_NAME":"STARLINK-5192","GP_ID":"224560449","COUNTRY_CODE":"US","RCS_SIZE":"LARGE","MEAN_ELEMENT_THEORY":"SGP4","PERIOD":"95.438","NORAD_CAT_ID":"54074","CLASSIFICATION_TYPE":"U"},{"CLASSIFICATION_TYPE":"U","RCS_SIZE":"MEDIUM","MEAN_ELEMENT_THEORY":"SGP4","PERIOD":"95.438","NORAD_CAT_ID":"54075","INCLINATION":"53.2184","PERIAPSIS":"538.818","MEAN_MOTION":"15.08840286","GP_ID":"224560200","OBJECT_NAME":"STARLINK-5212","COUNTRY_CODE":"US","LAUNCH_DATE":"2022-10-20","SITE":"AFETR","MEAN_MOTION_DOT":"0.00002969","TLE_LINE1":"1 54075U 22136AA  23036.88458966  .00002969  00000-0  20453-3 0  9996","APOAPSIS":"540.672","EPOCH":"2023-02-05T21:13:48.546624","REV_AT_EPOCH":"1665","DECAY_DATE":null,"OBJECT_ID":"2022-136AA","EPHEMERIS_TYPE":"0","TIME_SYSTEM":"UTC","ELEMENT_SET_NO":"999","ECCENTRICITY":"0.00013400","REF_FRAME":"TEME","RA_OF_ASC_NODE":"2.0433","OBJECT_TYPE":"PAYLOAD","SEMIMAJOR_AXIS":"6917.880","MEAN_MOTION_DDOT":"0.0000000000000","BSTAR":"0.00020453000000","MEAN_ANOMALY":"258.9414","ARG_OF_PERICENTER":"101.1729","TLE_LINE2":"2 54075  53.2184   2.0433 0001340 101.1729 258.9414 15.08840286 16650","CENTER_NAME":"EARTH","FILE":"3774172"},{"PERIOD":"95.438","NORAD_CAT_ID":"54076","RCS_SIZE":"LARGE","MEAN_ELEMENT_THEORY":"SGP4","CLASSIFICATION_TYPE":"U","TLE_LINE1":"1 54076U 22136AB  23036.91072081  .00002947  00000-0  20317-3 0  9996","MEAN_MOTION_DOT":"0.00002947","EPOCH":"2023-02-05T21:51:26.277984","APOAPSIS":"540.827","LAUNCH_DATE":"2022-10-20","SITE":"AFETR","OBJECT_NAME":"STARLINK-5201","GP_ID":"224561448","COUNTRY_CODE":"US","PERIAPSIS":"538.662","MEAN_MOTION":"15.08840221","INCLINATION":"53.2191","BSTAR":"0.00020317000000","MEAN_MOTION_DDOT":"0.0000000000000","MEAN_ANOMALY":"265.0501","RA_OF_ASC_NODE":"6.4889","REF_FRAME":"TEME","OBJECT_TYPE":"PAYLOAD","SEMIMAJOR_AXIS":"6917.880","TIME_SYSTEM":"UTC","ECCENTRICITY":"0.00015650","ELEMENT_SET_NO":"999","REV_AT_EPOCH":"1659","EPHEMERIS_TYPE":"0","OBJECT_ID":"2022-136AB","DECAY_DATE":null,"FILE":"3774172","CENTER_NAME":"EARTH","TLE_LINE2":"2 54076  53.2191   6.4889 0001565  95.0670 265.0501 15.08840221 16595","ARG_OF_PERICENTER":"95.0670"},{"CLASSIFICATION_TYPE":"U","NORAD_CAT_ID":"54077","PERIOD":"95.437","MEAN_ELEMENT_THEORY":"SGP4","RCS_SIZE":"LARGE","COUNTRY_CODE":"US","OBJECT_NAME":"STARLINK-5171","GP_ID":"224498047","MEAN_MOTION":"15.08846307","PERIAPSIS":"538.764","INCLINATION":"53.2175","EPOCH":"2023-02-05T06:17:31.896672","APOAPSIS":"540.688","TLE_LINE1":"1 54077U 22136AC  23036.26217473 -.00000439  00000-0 -94689-5 0  9992","MEAN_MOTION_DOT":"-0.00000439","SITE":"AFETR","LAUNCH_DATE":"2022-10-20","ECCENTRICITY":"0.00013910","ELEMENT_SET_NO":"999","TIME_SYSTEM":"UTC","EPHEMERIS_TYPE":"0","DECAY_DATE":null,"OBJECT_ID":"2022-136AC","REV_AT_EPOCH":"1677","MEAN_ANOMALY":"263.4738","BSTAR":"-0.00000946890000","MEAN_MOTION_DDOT":"0.0000000000000","OBJECT_TYPE":"PAYLOAD","SEMIMAJOR_AXIS":"6917.861","RA_OF_ASC_NODE":"349.5844","REF_FRAME":"TEME","ARG_OF_PERICENTER":"96.6412","FILE":"3773728","CENTER_NAME":"EARTH","TLE_LINE2":"2 54077  53.2175 349.5844 0001391  96.6412 263.4738 15.08846307 16773"},{"OBJECT_NAME":"STARLINK-5138","GP_ID":"224559950","COUNTRY_CODE":"US","PERIAPSIS":"538.910","MEAN_MOTION":"15.08831472","INCLINATION":"53.2202","TLE_LINE1":"1 54078U 22136AD  23036.89150347 -.00000577  00000-0 -18189-4 0  9991","MEAN_MOTION_DOT":"-0.00000577","EPOCH":"2023-02-05T21:23:45.899808","APOAPSIS":"540.633","LAUNCH_DATE":"2022-10-20","SITE":"AFETR","CLASSIFICATION_TYPE":"U","PERIOD":"95.438","NORAD_CAT_ID":"54078","RCS_SIZE":"LARGE","MEAN_ELEMENT_THEORY":"SGP4","ARG_OF_PERICENTER":"98.6326","CENTER_NAME":"EARTH","FILE":"3774172","TLE_LINE2":"2 54078  53.2202 347.1100 0001245  98.6326 261.4808 15.08831472 16861","TIME_SYSTEM":"UTC","ECCENTRICITY":"0.00012450","ELEMENT_SET_NO":"999","REV_AT_EPOCH":"1686","EPHEMERIS_TYPE":"0","OBJECT_ID":"2022-136AD","DECAY_DATE":null,"BSTAR":"-0.00001818900000","MEAN_MOTION_DDOT":"0.0000000000000","MEAN_ANOMALY":"261.4808","RA_OF_ASC_NODE":"347.1100","REF_FRAME":"TEME","SEMIMAJOR_AXIS":"6917.906","OBJECT_TYPE":"PAYLOAD"},{"REF_FRAME":"TEME","RA_OF_ASC_NODE":"359.5409","OBJECT_TYPE":"PAYLOAD","SEMIMAJOR_AXIS":"6917.867","MEAN_MOTION_DDOT":"0.0000000000000","BSTAR":"0.00002666000000","MEAN_ANOMALY":"268.7606","REV_AT_EPOCH":"1664","OBJECT_ID":"2022-136AE","DECAY_DATE":null,"EPHEMERIS_TYPE":"0","TIME_SYSTEM":"UTC","ELEMENT_SET_NO":"999","ECCENTRICITY":"0.00012820","TLE_LINE2":"2 54079  53.2174 359.5409 0001282  91.3533 268.7606 15.08844383 16647","CENTER_NAME":"EARTH","FILE":"3773728","ARG_OF_PERICENTER":"91.3533","RCS_SIZE":"LARGE","MEAN_ELEMENT_THEORY":"SGP4","PERIOD":"95.437","NORAD_CAT_ID":"54079","CLASSIFICATION_TYPE":"U","LAUNCH_DATE":"2022-10-20","SITE":"AFETR","MEAN_MOTION_DOT":"0.00000136","TLE_LINE1":"1 54079U 22136AE  23036.37442821  .00000136  00000-0  26660-4 0  9998","APOAPSIS":"540.619","EPOCH":"2023-02-05T08:59:10.597344","INCLINATION":"53.2174","MEAN_MOTION":"15.08844383","PERIAPSIS":"538.845","GP_ID":"224497555","OBJECT_NAME":"STARLINK-5175","COUNTRY_CODE":"US"},{"RA_OF_ASC_NODE":"4.9935","REF_FRAME":"TEME","OBJECT_TYPE":"PAYLOAD","SEMIMAJOR_AXIS":"6917.880","BSTAR":"-0.00005364700000","MEAN_MOTION_DDOT":"0.0000000000000","MEAN_ANOMALY":"276.7670","REV_AT_EPOCH":"1704","EPHEMERIS_TYPE":"0","OBJECT_ID":"2022-136AF","DECAY_DATE":null,"TIME_SYSTEM":"UTC","ECCENTRICITY":"0.00013430","ELEMENT_SET_NO":"999","TLE_LINE2":"2 54080  53.2199   4.9935 0001343  83.3475 276.7670 15.08840219 17044","FILE":"3774124","CENTER_NAME":"EARTH","ARG_OF_PERICENTER":"83.3475","RCS_SIZE":"LARGE","MEAN_ELEMENT_THEORY":"SGP4","PERIOD":"95.438","NORAD_CAT_ID":"54080","CLASSIFICATION_TYPE":"U","LAUNCH_DATE":"2022-10-20","SITE":"AFETR","TLE_LINE1":"1 54080U 22136AF  23036.33264505 -.00001142  00000-0 -53647-4 0  9992","MEAN_MOTION_DOT":"-0.00001142","EPOCH":"2023-02-05T07:59:00.532320","APOAPSIS":"540.674","PERIAPSIS":"538.816","MEAN_MOTION":"15.08840219","INCLINATION":"53.2199","OBJECT_NAME":"STARLINK-5160","GP_ID":"224534993","COUNTRY_CODE":"US"},{"SITE":"AFETR","LAUNCH_DATE":"2022-10-20","EPOCH":"2023-02-05T07:13:11.093376","APOAPSIS":"540.814","TLE_LINE1":"1 54081U 22136AG  23036.30082284  .00001578  00000-0  11722-3 0  9990","MEAN_MOTION_DOT":"0.00001578","MEAN_MOTION":"15.08839795","PERIAPSIS":"538.678","INCLINATION":"53.2195","COUNTRY_CODE":"US","OBJECT_NAME":"STARLINK-5165","GP_ID":"224498546","MEAN_ELEMENT_THEORY":"SGP4","RCS_SIZE":"LARGE","NORAD_CAT_ID":"54081","PERIOD":"95.438","CLASSIFICATION_TYPE":"U","TLE_LINE2":"2 54081  53.2195 359.7878 0001544 109.1235 250.9924 15.08839795 16639","FILE":"3773728","CENTER_NAME":"EARTH","ARG_OF_PERICENTER":"109.1235","OBJECT_TYPE":"PAYLOAD","SEMIMAJOR_AXIS":"6917.881","RA_OF_ASC_NODE":"359.7878","REF_FRAME":"TEME","MEAN_ANOMALY":"250.9924","BSTAR":"0.00011722000000","MEAN_MOTION_DDOT":"0.0000000000000","EPHEMERIS_TYPE":"0","DECAY_DATE":null,"OBJECT_ID":"2022-136AG","REV_AT_EPOCH":"1663","ECCENTRICITY":"0.00015440","ELEMENT_SET_NO":"999","TIME_SYSTEM":"UTC"},{"PERIOD":"95.437","NORAD_CAT_ID":"54082","RCS_SIZE":"LARGE","MEAN_ELEMENT_THEORY":"SGP4","CLASSIFICATION_TYPE":"U","MEAN_MOTION_DOT":"-0.00000236","TLE_LINE1":"1 54082U 22136AH  23036.17202603 -.00000236  00000-0  32849-5 0  9991","APOAPSIS":"540.854","EPOCH":"2023-02-05T04:07:43.048992","LAUNCH_DATE":"2022-10-20","SITE":"AFETR","GP_ID":"224497306","OBJECT_NAME":"STARLINK-5210","COUNTRY_CODE":"US","INCLINATION":"53.2178","MEAN_MOTION":"15.08844536","PERIAPSIS":"538.609","MEAN_MOTION_DDOT":"0.0000000000000","BSTAR":"0.00000328490000","MEAN_ANOMALY":"254.7569","RA_OF_ASC_NODE":"0.4054","REF_FRAME":"TEME","SEMIMAJOR_AXIS":"6917.867","OBJECT_TYPE":"PAYLOAD","TIME_SYSTEM":"UTC","ELEMENT_SET_NO":"999","ECCENTRICITY":"0.00016230","REV_AT_EPOCH":"1661","OBJECT_ID":"2022-136AH","DECAY_DATE":null,"EPHEMERIS_TYPE":"0","CENTER_NAME":"EARTH","FILE":"3773728","TLE_LINE2":"2 54082  53.2178   0.4054 0001623 105.3603 254.7569 15.08844536 16616","ARG_OF_PERICENTER":"105.3603"},{"OBJECT_ID":"2022-136AJ","DECAY_DATE":null,"EPHEMERIS_TYPE":"0","REV_AT_EPOCH":"1711","ELEMENT_SET_NO":"999","ECCENTRICITY":"0.00012920","TIME_SYSTEM":"UTC","OBJECT_TYPE":"PAYLOAD","SEMIMAJOR_AXIS":"6917.873","RA_OF_ASC_NODE":"359.7494","REF_FRAME":"TEME","MEAN_ANOMALY":"271.0140","MEAN_MOTION_DDOT":"0.0000000000000","BSTAR":"-0.00004620700000","ARG_OF_PERICENTER":"89.1001","TLE_LINE2":"2 54083  53.2190 359.7494 0001292  89.1001 271.0140 15.08842296 17116","CENTER_NAME":"EARTH","FILE":"3774124","CLASSIFICATION_TYPE":"U","MEAN_ELEMENT_THEORY":"SGP4","RCS_SIZE":"LARGE","NORAD_CAT_ID":"54083","PERIOD":"95.437","INCLINATION":"53.2190","PERIAPSIS":"538.845","MEAN_MOTION":"15.08842296","COUNTRY_CODE":"US","GP_ID":"224534635","OBJECT_NAME":"STARLINK-5178","SITE":"AFETR","LAUNCH_DATE":"2022-10-20","APOAPSIS":"540.632","EPOCH":"2023-02-05T07:02:34.623456","MEAN_MOTION_DOT":"-0.00001023","TLE_LINE1":"1 54083U 22136AJ  23036.29345629 -.00001023  00000-0 -46207-4 0  9999"}];
